[{"OBJECT_NAME":"JILIN-1 07","OBJECT_ID":"2018-008E","EPOCH":"2026-03-09T22:24:26.445888","MEAN_MOTION":15.32987507,"ECCENTRICITY":0.00101791,"INCLINATION":97.1876,"RA_OF_ASC_NODE":91.5817,"ARG_OF_PERICENTER":62.7832,"MEAN_ANOMALY":297.4447,"EPHEMERIS_TYPE":0,"CLASSIFICATION_TYPE":"U","NORAD_CAT_ID":43159,"ELEMENT_SET_NO":999,"REV_AT_EPOCH":44978,"BSTAR":0.00036439521,"MEAN_MOTION_DOT":0.00011559,"MEAN_MOTION_DDOT":0},{"OBJECT_NAME":"STARLINK-33600","OBJECT_ID":"2025-015Q","EPOCH":"2026-03-09T22:06:30.472128","MEAN_MOTION":15.30210009,"ECCENTRICITY":0.00011171,"INCLINATION":53.1574,"RA_OF_ASC_NODE":321.5872,"ARG_OF_PERICENTER":118.8142,"MEAN_ANOMALY":241.2971,"EPHEMERIS_TYPE":0,"CLASSIFICATION_TYPE":"U","NORAD_CAT_ID":62772,"ELEMENT_SET_NO":999,"REV_AT_EPOCH":6451,"BSTAR":0.00081848206,"MEAN_MOTION_DOT":0.00023968,"MEAN_MOTION_DDOT":0}]
